ONEWEB-0456             
1 51646U 22012AA  25081.84142650 -.00000735  00000+0 -21419-2 0  9990
2 51646  87.8829 126.2081 0002004  91.6089 268.5267 13.10373133150237
ONEWEB-0457             
1 51647U 22012AB  25082.12363461  .00000153  00000+0  40261-3 0  9997
2 51647  87.8831 126.1988 0001846 109.4222 250.7105 13.10370410151573
ONEWEB-0458             
1 51648U 22012AC  25082.52699850 -.00000879  00000+0 -25537-2 0  9991
2 51648  87.8818 126.1130 0002106  98.5131 261.6235 13.10374483151585
ONEWEB-0461             
1 51649U 22012AD  25082.01638532  .00000070  00000+0  14592-3 0  9997
2 51649  87.8999  95.7194 0001852  92.7748 267.3595 13.17649972155765
ONEWEB-0463             
1 51650U 22012AE  25081.77001665  .00000094  00000+0  20894-3 0  9990
2 51650  87.9000  95.8277 0001953  94.2765 265.8590 13.17650170154222
ONEWEB-0464             
1 51651U 22012AF  25081.83645379 -.00000586  00000+0 -17160-2 0  9993
2 51651  87.8836 126.2633 0002115  88.6028 271.5341 13.10371919150211
ONEWEB-0468             
1 51652U 22012AG  25081.84308863 -.00000606  00000+0 -17734-2 0  9999
2 51652  87.8837 126.2546 0002002  97.1929 262.9426 13.10373712150194
ONEWEB-0473             
1 51653U 22012AH  25081.82815240 -.00000367  00000+0 -10863-2 0  9990
2 51653  87.8832 126.2606 0002102  97.6679 262.4687 13.10370035150194
ONEWEB-0474             
1 51654U 22012AJ  25082.12529322  .00000075  00000+0  17964-3 0  9992
2 51654  87.8820 126.1728 0002202  94.1743 265.9636 13.10370368151519
ONEWEB-0475             
1 51655U 22012AK  25082.00963200  .00000023  00000+0  25373-4 0  9994
2 51655  87.9003  95.7596 0002790  91.5621 268.5830 13.17651466155568
ONEWEB-0490             
1 54113U 22138A   25081.87303523  .00000079  00000+0  16561-3 0  9994
2 54113  87.9219  34.6525 0002022  76.7504 283.3855 13.19726682117303
ONEWEB-0492             
1 54114U 22138B   25081.82248241  .00000097  00000+0  20934-3 0  9994
2 54114  87.9225  34.6809 0001863  73.1468 286.9869 13.19727548117304
ONEWEB-0495             
1 54115U 22138C   25081.87619634  .00000049  00000+0  89798-4 0  9999
2 54115  87.9225  34.6815 0002559  71.6434 288.4976 13.19724651117297
ONEWEB-0497             
1 54116U 22138D   25081.88883528  .00000080  00000+0  16749-3 0  9996
2 54116  87.9221  34.6549 0001997  78.7036 281.4321 13.19725623117285
ONEWEB-0499             
1 54117U 22138E   25081.87146373  .00000043  00000+0  74868-4 0  9992
2 54117  87.9225  34.6720 0002243  86.8650 273.2739 13.19726362117292
ONEWEB-0500             
1 54118U 22138F   25081.87461993  .00000091  00000+0  19499-3 0  9992
2 54118  87.9222  34.6589 0001878  78.5545 281.5798 13.19726963117303
ONEWEB-0501             
1 54119U 22138G   25081.90462354  .00000045  00000+0  79009-4 0  9992
2 54119  87.9222  34.6478 0002355  76.0469 284.0926 13.19727476117288
ONEWEB-0502             
1 54120U 22138H   25081.89039954  .00000140  00000+0  31630-3 0  9991
2 54120  87.9219  34.6355 0002232  80.4090 279.7295 13.19728227117301
ONEWEB-0503             
1 54121U 22138J   25081.87935075  .00000072  00000+0  14646-3 0  9991
2 54121  87.9219  34.6434 0002017  90.8503 269.2861 13.19727441117293
ONEWEB-0504             
1 54122U 22138K   25081.86672509  .00000007  00000+0 -14814-4 0  9998
2 54122  87.9221  34.6584 0002258  83.1583 276.9806 13.19726635117303
ONEWEB-0505             
1 54123U 22138L   25082.09101809  .00000043  00000+0  75535-4 0  9991
2 54123  87.9220  34.6047 0002524  77.4480 282.6935 13.19726690118180
ONEWEB-0506             
1 54124U 22138M   25081.91410032 -.00000043  00000+0 -13852-3 0  9998
2 54124  87.9220  34.6372 0002092  79.6346 280.5023 13.19725507118155
ONEWEB-0507             
1 54125U 22138N   25081.85880689  .00000076  00000+0  15743-3 0  9996
2 54125  87.9228  34.6926 0002079  76.3483 283.7882 13.19728212117322
ONEWEB-0508             
1 54126U 22138P   25081.85566852  .00000076  00000+0  15703-3 0  9996
2 54126  87.9227  34.6788 0002230  72.3533 287.7844 13.19726807117307
ONEWEB-0509             
1 54127U 22138Q   25081.90620389  .00000056  00000+0  10718-3 0  9998
2 54127  87.9219  34.6372 0002037  79.0639 281.0723 13.19727147117282
ONEWEB-0510             
1 54128U 22138R   25082.53009035 -.00000004  00000+0 -42408-4 0  9995
2 54128  87.9335   4.1312 0001597  75.6266 284.5044 13.20774732120693
ONEWEB-0511             
1 54129U 22138S   25081.90304145  .00000169  00000+0  39062-3 0  9997
2 54129  87.9216  34.6421 0002132  88.2305 271.9071 13.19727895117312
ONEWEB-0512             
1 54130U 22138T   25081.81932702  .00000107  00000+0  23416-3 0  9993
2 54130  87.9228  34.6972 0002371  79.7267 280.4133 13.19723860117272
ONEWEB-0513             
1 54131U 22138U   25081.86168665 -.00000020  00000+0 -81437-4 0  9992
2 54131  87.9225  34.6742 0002374  83.1551 276.9852 13.20253797117168
ONEWEB-0514             
1 54132U 22138V   25081.91093343  .00000091  00000+0  19510-3 0  9997
2 54132  87.9222  34.6517 0001898  82.5884 277.5464 13.19728487118177
ONEWEB-0515             
1 54133U 22138W   25081.75989738  .00000061  00000+0  11755-3 0  9992
2 54133  87.9335   4.2605 0001034  54.3519 305.7710 13.20774359119718
ONEWEB-0516             
1 54134U 22138X   25082.26474947  .00000193  00000+0  45049-3 0  9990
2 54134  87.9227  34.6111 0001984  76.8380 283.2974 13.19728376118220
ONEWEB-0517             
1 54135U 22138Y   25081.86514215  .00000033  00000+0  50376-4 0  9992
2 54135  87.9220  34.6562 0002069  91.1095 269.0275 13.19726808117304
ONEWEB-0518             
1 54136U 22138Z   25082.26317562  .00000175  00000+0  40356-3 0  9997
2 54136  87.9228  34.6075 0001997  83.0861 277.0499 13.19727677118226
ONEWEB-0519             
1 54137U 22138AA  25081.90935967  .00000093  00000+0  20028-3 0  9996
2 54137  87.9220  34.6408 0002042  88.1679 271.9687 13.19727936117313
ONEWEB-0520             
1 54138U 22138AB  25082.32319520  .00000126  00000+0  28182-3 0  9991
2 54138  87.9221  34.5620 0002229  74.3384 285.7994 13.19724633118223
ONEWEB-0521             
1 54139U 22138AC  25081.90146107  .00000071  00000+0  14430-3 0  9994
2 54139  87.9220  34.6346 0001821  89.6561 270.4781 13.19727714117241
ONEWEB-0522             
1 54140U 22138AD  25081.88093628  .00000063  00000+0  12625-3 0  9997
2 54140  87.9219  34.6399 0001945  76.5925 283.5425 13.19726857117286
ONEWEB-0523             
1 54141U 22138AE  25082.20181676  .00000200  00000+0  46023-3 0  9998
2 54141  87.9337   4.2030 0001002  93.4119 266.7129 13.20773791120649
ONEWEB-0524             
1 54142U 22138AF  25082.03925553  .00000207  00000+0  47716-3 0  9997
2 54142  87.9337   4.2371 0001347  46.9468 313.1778 13.20773637120624
ONEWEB-0525             
1 54143U 22138AG  25082.27895535 -.00002139  00000+0 -53782-2 0  9997
2 54143  87.9223  34.5776 0002244  76.7743 283.3640 13.19715758118225
ONEWEB-0526             
1 54144U 22138AH  25081.85724821  .00000060  00000+0  11784-3 0  9996
2 54144  87.9218  34.6515 0001982  77.9888 282.1467 13.19725876117273
ONEWEB-0529             
1 54145U 22138AJ  25081.86038289  .00000028  00000+0  38070-4 0  9996
2 54145  87.9227  34.6863 0002150  76.2468 283.8904 13.19728224117290
ONEWEB-0531             
1 54146U 22138AK  25082.17656016  .00000142  00000+0  31754-3 0  9994
2 54146  87.9338   4.2033 0000900  76.5300 283.5934 13.20774102120646
ONEWEB-0535             
1 54147U 22138AL  25082.34846074  .00000010  00000+0 -65746-5 0  9994
2 54147  87.9221  34.5505 0001653  83.8926 276.2395 13.19726933118249
ONEWEB-0536             
1 54148U 22138AM  25082.54272013  .00000010  00000+0 -64416-5 0  9996
2 54148  87.9337   4.1772 0000776  63.7599 296.3614 13.20773554120686
ONEWEB-0527             
1 54642U 22166A   25081.94510167  .00000119  00000+0  25715-3 0  9990
2 54642  87.9328 333.9678 0001716  76.0511 284.0814 13.21827685111928
ONEWEB-0528             
1 54643U 22166B   25081.95140675  .00000161  00000+0  35795-3 0  9991
2 54643  87.9331 333.9632 0001850  76.2572 283.8768 13.21828059111933
ONEWEB-0539             
1 54644U 22166C   25081.76058456 -.00000043  00000+0 -13458-3 0  9999
2 54644  87.9311 333.9977 0001827  83.3733 276.7609 13.21828642111906
ONEWEB-0540             
1 54645U 22166D   25082.52387192  .00000058  00000+0  10851-3 0  9995
2 54645  87.9324 333.8628 0001949  84.0558 276.0798 13.21826701112469
ONEWEB-0542             
1 54646U 22166E   25081.77005588  .00000086  00000+0  17679-3 0  9994
2 54646  87.9309 333.9943 0001876  91.5279 268.6070 13.21827601111904
ONEWEB-0545             
1 54647U 22166F   25081.96402548  .00000039  00000+0  62975-4 0  9991
2 54647  87.9319 333.9581 0002218  93.1867 266.9520 13.21827428112365
ONEWEB-0580             
1 54648U 22166G   25082.16429924  .00000119  00000+0  25602-3 0  9996
2 54648  87.9328 333.9079 0001867  93.3392 266.7956 13.21828502112424
ONEWEB-0582             
1 54649U 22166H   25081.75270430 -.00000063  00000+0 -18436-3 0  9994
2 54649  87.9306 334.0110 0001838  98.7759 261.3583 13.21828081111881
ONEWEB-0583             
1 54650U 22166J   25081.76374126 -.00000048  00000+0 -14761-3 0  9994
2 54650  87.9324 334.0118 0001823  82.3622 277.7719 13.21828082111897
ONEWEB-0584             
1 54651U 22166K   25082.16273092  .00000089  00000+0  18426-3 0  9995
2 54651  87.9328 333.9122 0001733  94.8895 265.2436 13.21827385112406
ONEWEB-0585             
1 54652U 22166L   25082.11225957  .00000199  00000+0  45053-3 0  9996
2 54652  87.9319 333.9193 0001695  76.8829 283.2494 13.21828326112409
ONEWEB-0586             
1 54653U 22166M   25082.42766739  .00000003  00000+0 -24781-4 0  9990
2 54653  87.9323 333.8723 0001859  85.7388 274.3959 13.21824102112443
ONEWEB-0587             
1 54654U 22166N   25081.75585447 -.00000444  00000+0 -11067-2 0  9992
2 54654  87.9325 333.9562 0001738  71.5469 288.5854 13.21825795112043
